$$SOE
2461288.500000000, A.D. 2026-Sep-05 00:00:00.0000, 9.723402702759750E+07, -2.725844433315732E+08, -2.198465229329561E+07,
2461295.500000000, A.D. 2026-Sep-12 00:00:00.0000, 1.104113491562119E+08, -2.685734690562975E+08, -2.156672348352024E+07,
2461302.500000000, A.D. 2026-Sep-19 00:00:00.0000, 1.233716768017288E+08, -2.640345230374055E+08, -2.110639562199551E+07,
2461309.500000000, A.D. 2026-Sep-26 00:00:00.0000, 1.360920523446769E+08, -2.589819210401610E+08, -2.060500450896287E+07,
2461316.500000000, A.D. 2026-Oct-03 00:00:00.0000, 1.485506635274684E+08, -2.534310754550358E+08, -2.006396952192621E+07,
2461323.500000000, A.D. 2026-Oct-10 00:00:00.0000, 1.607268957561249E+08, -2.473983868086691E+08, -1.948478428313676E+07,
2461330.500000000, A.D. 2026-Oct-17 00:00:00.0000, 1.726013728312367E+08, -2.409011341163583E+08, -1.886900730253543E+07,
2461337.500000000, A.D. 2026-Oct-24 00:00:00.0000, 1.841559864679925E+08, -2.339573654049320E+08, -1.821825270593852E+07,
2461344.500000000, A.D. 2026-Oct-31 00:00:00.0000, 1.953739151925020E+08, -2.265857896675654E+08, -1.753418115934370E+07,
2461351.500000000, A.D. 2026-Nov-07 00:00:00.0000, 2.062396335730542E+08, -2.188056712514868E+08, -1.681849110000928E+07,
2461358.500000000, A.D. 2026-Nov-14 00:00:00.0000, 2.167389127069536E+08, -2.106367267405219E+08, -1.607291029383788E+07,
2461365.500000000, A.D. 2026-Nov-21 00:00:00.0000, 2.268588109390736E+08, -2.020990244616076E+08, -1.529918755849898E+07,
2461372.500000000, A.D. 2026-Nov-28 00:00:00.0000, 2.365876546468208E+08, -1.932128902867024E+08, -1.449908485596281E+07,
2461379.500000000, A.D. 2026-Dec-05 00:00:00.0000, 2.459150135733645E+08, -1.839988209076733E+08, -1.367437017800588E+07,
2461386.500000000, A.D. 2026-Dec-12 00:00:00.0000, 2.548316717490048E+08, -1.744774018671003E+08, -1.282681101262455E+07,
2461393.500000000, A.D. 2026-Dec-19 00:00:00.0000, 2.633295929785717E+08, -1.646692306130816E+08, -1.195816823460577E+07,
2461400.500000000, A.D. 2026-Dec-26 00:00:00.0000, 2.714018815908781E+08, -1.545948456074771E+08, -1.107019048580184E+07,
2461407.500000000, A.D. 2027-Jan-02 00:00:00.0000, 2.790427395266371E+08, -1.442746617380058E+08, -1.016460908556827E+07,
2461414.500000000, A.D. 2027-Jan-09 00:00:00.0000, 2.862474206356933E+08, -1.337289119846061E+08, -9.243133472962722E+06,
2461421.500000000, A.D. 2027-Jan-16 00:00:00.0000, 2.930121829191213E+08, -1.229775952260323E+08, -8.307447169779144E+06,
2461428.500000000, A.D. 2027-Jan-23 00:00:00.0000, 2.993342394027339E+08, -1.120404300580591E+08, -7.359204253615648E+06,
2461435.500000000, A.D. 2027-Jan-30 00:00:00.0000, 3.052117084053143E+08, -1.009368144497297E+08, -6.400026340230033E+06,
2461442.500000000, A.D. 2027-Feb-06 00:00:00.0000, 3.106435641388010E+08, -8.968579063018864E+07, -5.431500061535355E+06,
2461449.500000000, A.D. 2027-Feb-13 00:00:00.0000, 3.156295876401263E+08, -7.830601368769902E+07, -4.455174869670324E+06,
2461456.500000000, A.D. 2027-Feb-20 00:00:00.0000, 3.201703160753472E+08, -6.681572436011389E+07, -3.472560985813119E+06,
2461463.500000000, A.D. 2027-Feb-27 00:00:00.0000, 3.242669921486687E+08, -5.523272890538938E+07, -2.485127855329271E+06,
2461470.500000000, A.D. 2027-Mar-06 00:00:00.0000, 3.279215169133967E+08, -4.357438379036113E+07, -1.494303199743060E+06,
2461477.500000000, A.D. 2027-Mar-13 00:00:00.0000, 3.311364046196573E+08, -3.185758280792624E+07, -5.014723218869977E+05,
2461484.500000000, A.D. 2027-Mar-20 00:00:00.0000, 3.339147386609827E+08, -2.009874712363185E+07, 4.920223999679051E+05,
2461491.500000000, A.D. 2027-Mar-27 00:00:00.0000, 3.362601289706981E+08, -8.313818475815483E+06, 1.484881793437134E+06,
2461498.500000000, A.D. 2027-Apr-03 00:00:00.0000, 3.381766711819681E+08, 3.481744736572070E+06, 2.475849952937603E+06,
2461505.500000000, A.D. 2027-Apr-10 00:00:00.0000, 3.396689076906314E+08, 1.527296880152431E+07, 3.463714101798261E+06,
2461512.500000000, A.D. 2027-Apr-17 00:00:00.0000, 3.407417906923679E+08, 2.704536374709691E+07, 4.447304276320077E+06,
2461519.500000000, A.D. 2027-Apr-24 00:00:00.0000, 3.414006472987961E+08, 3.878492030501750E+07, 5.425492841909289E+06,
2461526.500000000, A.D. 2027-May-01 00:00:00.0000, 3.416511470354379E+08, 5.047810506008239E+07, 6.397193836748037E+06,
2461533.500000000, A.D. 2027-May-08 00:00:00.0000, 3.414992720093677E+08, 6.211185476295191E+07, 7.361362194683637E+06,
2461540.500000000, A.D. 2027-May-15 00:00:00.0000, 3.409512882163852E+08, 7.367357097586940E+07, 8.316993080510493E+06,
2461547.500000000, A.D. 2027-May-22 00:00:00.0000, 3.400137163883094E+08, 8.515111265456401E+07, 9.263121286292456E+06,
2461554.500000000, A.D. 2027-May-29 00:00:00.0000, 3.386933056824392E+08, 9.653278536654483E+07, 1.019882027456457E+07,
2461561.500000000, A.D. 2027-Jun-05 00:00:00.0000, 3.369970110233234E+08, 1.078073304340312E+08, 1.112320105447521E+07,
2461568.500000000, A.D. 2027-Jun-12 00:00:00.0000, 3.349319720115497E+08, 1.189639145824656E+08, 1.203541112100419E+07,
2461575.500000000, A.D. 2027-Jun-19 00:00:00.0000, 3.325054929947014E+08, 1.299921192977686E+08, 1.293463342176871E+07,
2461582.500000000, A.D. 2027-Jun-26 00:00:00.0000, 3.297250245104090E+08, 1.408819297543840E+08, 1.382008531479985E+07,
2461589.500000000, A.D. 2027-Jul-03 00:00:00.0000, 3.265981461652673E+08, 1.516237234284109E+08, 1.469101751539641E+07,
2461596.500000000, A.D. 2027-Jul-10 00:00:00.0000, 3.231325509151476E+08, 1.622082584946020E+08, 1.554671303747728E+07,
2461603.500000000, A.D. 2027-Jul-17 00:00:00.0000, 3.193360307082915E+08, 1.726266620464135E+08, 1.638648612953769E+07,
2461610.500000000, A.D. 2027-Jul-24 00:00:00.0000, 3.152164635716206E+08, 1.828704181453929E+08, 1.720968119124290E+07,
2461617.500000000, A.D. 2027-Jul-31 00:00:00.0000, 3.107818024772500E+08, 1.929313559954460E+08, 1.801567165670027E+07,
2461624.500000000, A.D. 2027-Aug-07 00:00:00.0000, 3.060400657127803E+08, 2.028016394432623E+08, 1.880385896016856E+07,
2461631.500000000, A.D. 2027-Aug-14 00:00:00.0000, 3.009993263771347E+08, 2.124737575979924E+08, 1.957367177772807E+07,
2461638.500000000, A.D. 2027-Aug-21 00:00:00.0000, 2.956677015556706E+08, 2.219405132516537E+08, 2.032456521724987E+07,
2461645.500000000, A.D. 2027-Aug-28 00:00:00.0000, 2.900533445464795E+08, 2.311950103357439E+08, 2.105601974254672E+07,
2461652.500000000, A.D. 2027-Sep-04 00:00:00.0000, 2.841644388924891E+08, 2.402306429410363E+08, 2.176754014564155E+07,
2461659.500000000, A.D. 2027-Sep-11 00:00:00.0000, 2.780091927633166E+08, 2.490410852626751E+08, 2.245865464239416E+07,
2461666.500000000, A.D. 2027-Sep-18 00:00:00.0000, 2.715958337645814E+08, 2.576202818403509E+08, 2.312891402725337E+07,
2461673.500000000, A.D. 2027-Sep-25 00:00:00.0000, 2.649326043514477E+08, 2.659624380319582E+08, 2.377789086055745E+07,
2461680.500000000, A.D. 2027-Oct-02 00:00:00.0000, 2.580277578722405E+08, 2.740620107610891E+08, 2.440517868424131E+07,
2461687.500000000, A.D. 2027-Oct-09 00:00:00.0000, 2.508895552183047E+08, 2.819136995439798E+08, 2.501039126383843E+07,
2461694.500000000, A.D. 2027-Oct-16 00:00:00.0000, 2.435262620999689E+08, 2.895124377490317E+08, 2.559316184673627E+07,
2461701.500000000, A.D. 2027-Oct-23 00:00:00.0000, 2.359461471685998E+08, 2.968533840896938E+08, 2.615314241262585E+07,
2461708.500000000, A.D. 2027-Oct-30 00:00:00.0000, 2.281574813238670E+08, 3.039319149652964E+08, 2.669000293173271E+07,
2461715.500000000, A.D. 2027-Nov-06 00:00:00.0000, 2.201685370086422E+08, 3.107436187760001E+08, 2.720343082895605E+07,
2461722.500000000, A.D. 2027-Nov-13 00:00:00.0000, 2.119875854679424E+08, 3.172842901318493E+08, 2.769313066558237E+07,
2461729.500000000, A.D. 2027-Nov-20 00:00:00.0000, 2.036228948419650E+08, 3.235499217735916E+08, 2.815882359423287E+07,
2461736.500000000, A.D. 2027-Nov-27 00:00:00.0000, 1.950827306853792E+08, 3.295366971682236E+08, 2.860024668027128E+07,
2461743.500000000, A.D. 2027-Dec-04 00:00:00.0000, 1.863753568595827E+08, 3.352409846871346E+08, 2.901715234861742E+07,
2461750.500000000, A.D. 2027-Dec-11 00:00:00.0000, 1.775090362182254E+08, 3.406593324004432E+08, 2.940930792709585E+07,
2461757.500000000, A.D. 2027-Dec-18 00:00:00.0000, 1.684920313358051E+08, 3.457884631484016E+08, 2.977649523334578E+07,
2461764.500000000, A.D. 2027-Dec-25 00:00:00.0000, 1.593326054095779E+08, 3.506252698880675E+08, 3.011851019140792E+07,
2461771.500000000, A.D. 2028-Jan-01 00:00:00.0000, 1.500390233570364E+08, 3.551668113296176E+08, 3.043516247570531E+07,
$$EOE